<?xml version="1.0" encoding="utf-8" ?>
<kml xmlns="http://www.opengis.net/kml/2.2">
<Document><Folder><name>sql_statement</name>
<Schema name="sql_statement" id="sql_statement">
	<SimpleField name="Name" type="string"></SimpleField>
	<SimpleField name="Description" type="string"></SimpleField>
	<SimpleField name="no_uc" type="string"></SimpleField>
	<SimpleField name="nu_anocriacao" type="string"></SimpleField>
	<SimpleField name="sg_unidade" type="string"></SimpleField>
	<SimpleField name="sg_grupo" type="string"></SimpleField>
	<SimpleField name="nu_perimeter" type="float"></SimpleField>
	<SimpleField name="nu_hectares" type="float"></SimpleField>
	<SimpleField name="no_coord_reg" type="string"></SimpleField>
	<SimpleField name="co_cnuc" type="int"></SimpleField>
</Schema>
  <Placemark>
	<Style><LineStyle><color>ff0000ff</color></LineStyle><PolyStyle><fill>0</fill></PolyStyle></Style>
	<ExtendedData><SchemaData schemaUrl="#sql_statement">
		<SimpleData name="no_uc">Parque Nacional da Chapada dos Guimarães</SimpleData>
		<SimpleData name="nu_anocriacao">1989</SimpleData>
		<SimpleData name="sg_unidade">PARNA                                                                           </SimpleData>
		<SimpleData name="sg_grupo">PI</SimpleData>
		<SimpleData name="nu_perimeter">113073.4235</SimpleData>
		<SimpleData name="nu_hectares">32646.8319</SimpleData>
		<SimpleData name="no_coord_reg">Chapada dos Guimarães/MT (CR10)</SimpleData>
		<SimpleData name="co_cnuc">138</SimpleData>
	</SchemaData></ExtendedData>
      <MultiGeometry><Polygon><outerBoundaryIs><LinearRing><coordinates>-55.924026489257812,-15.215599060058594 -55.923425674438477,-15.216367721557617 -55.922824859619141,-15.217218399047852 -55.922523498535156,-15.217716217041016 -55.922273635864258,-15.21821403503418 -55.922153472900391,-15.218793869018555 -55.922117233276367,-15.219581604003906 -55.922145843505859,-15.220371246337891 -55.922174453735352,-15.221273422241211 -55.922151565551758,-15.222640991210938 -55.922145843505859,-15.223655700683594 -55.922122955322266,-15.224798202514648 -55.922084808349609,-15.225763320922852 -55.922214508056641,-15.226346969604492 -55.915830612182617,-15.244993209838867 -55.91493034362793,-15.244369506835938 -55.913885116577148,-15.243545532226562 -55.912679672241211,-15.242483139038086 -55.911420822143555,-15.241313934326172 -55.910335540771484,-15.240514755249023 -55.909521102905273,-15.240087509155273 -55.907999038696289,-15.23936653137207 -55.907253265380859,-15.238847732543945 -55.906698226928711,-15.238304138183594 -55.906320571899414,-15.237720489501953 -55.905847549438477,-15.2369384765625 -55.905265808105469,-15.236261367797852 -55.904399871826172,-15.235450744628906 -55.903669357299805,-15.234655380249023 -55.902910232543945,-15.233739852905273 -55.902193069458008,-15.233245849609375 -55.901445388793945,-15.232925415039062 -55.900260925292969,-15.232852935791016 -55.899364471435547,-15.232624053955078 -55.898370742797852,-15.232646942138672 -55.896764755249023,-15.232650756835938 -55.895336151123047,-15.232645034790039 -55.893894195556641,-15.232519149780273 -55.893009185791016,-15.232475280761719 -55.892421722412109,-15.232540130615234 -55.884025573730469,-15.235116958618164 -55.85188102722168,-15.244983673095703 -55.816827774047852,-15.259521484375 -55.809858322143555,-15.262413024902344 -55.798503875732422,-15.280288696289062 -55.79023551940918,-15.293308258056641 -55.788217544555664,-15.314888000488281 -55.786249160766602,-15.335914611816406 -55.794818878173828,-15.343778610229492 -55.805206298828125,-15.35331916809082 -55.813644409179688,-15.361072540283203 -55.825750350952148,-15.372198104858398 -55.83601188659668,-15.381576538085938 -55.840421676635742,-15.383955001831055 -55.839239120483398,-15.384939193725586 -55.839254379272461,-15.385078430175781 -55.839189529418945,-15.385398864746094 -55.83880615234375,-15.386175155639648 -55.83807373046875,-15.387487411499023 -55.837486267089844,-15.388584136962891 -55.837007522583008,-15.389623641967773 -55.8363037109375,-15.391302108764648 -55.835491180419922,-15.392948150634766 -55.834775924682617,-15.39421272277832 -55.833774566650391,-15.395660400390625 -55.832664489746094,-15.396892547607422 -55.830684661865234,-15.398700714111328 -55.829242706298828,-15.400115966796875 -55.827707290649414,-15.401529312133789 -55.826456069946289,-15.402637481689453 -55.825283050537109,-15.40380859375 -55.823383331298828,-15.405389785766602 -55.822164535522461,-15.406543731689453 -55.821151733398438,-15.407257080078125 -55.820123672485352,-15.407711029052734 -55.819318771362305,-15.407951354980469 -55.818698883056641,-15.408140182495117 -55.81895637512207,-15.40833854675293 -55.819313049316406,-15.408426284790039 -55.819766998291016,-15.408514022827148 -55.820188522338867,-15.408573150634766 -55.820474624633789,-15.408580780029297 -55.821697235107422,-15.408594131469727 -55.822244644165039,-15.408651351928711 -55.822649002075195,-15.408823013305664 -55.822877883911133,-15.409029006958008 -55.822994232177734,-15.409307479858398 -55.822992324829102,-15.409700393676758 -55.823034286499023,-15.410173416137695 -55.823205947875977,-15.410585403442383 -55.823385238647461,-15.410961151123047 -55.823793411254883,-15.411520004272461 -55.824033737182617,-15.412015914916992 -55.824111938476562,-15.412313461303711 -55.824123382568359,-15.41264533996582 -55.824087142944336,-15.413606643676758 -55.824064254760742,-15.414344787597656 -55.824111938476562,-15.414731979370117 -55.824192047119141,-15.414913177490234 -55.824289321899414,-15.415058135986328 -55.824506759643555,-15.415216445922852 -55.825128555297852,-15.415515899658203 -55.82550048828125,-15.415826797485352 -55.825977325439453,-15.416446685791016 -55.826509475708008,-15.417192459106445 -55.826755523681641,-15.417793273925781 -55.826826095581055,-15.418403625488281 -55.826808929443359,-15.419189453125 -55.826818466186523,-15.419981002807617 -55.826871871948242,-15.420351028442383 -55.827125549316406,-15.420738220214844 -55.827701568603516,-15.421363830566406 -55.82817268371582,-15.42192268371582 -55.828250885009766,-15.422142028808594 -55.828285217285156,-15.422660827636719 -55.828262329101562,-15.423471450805664 -55.82826042175293,-15.423877716064453 -55.828113555908203,-15.424432754516602 -55.827861785888672,-15.425107955932617 -55.827493667602539,-15.42613410949707 -55.827117919921875,-15.427461624145508 -55.826990127563477,-15.428096771240234 -55.826698303222656,-15.428892135620117 -55.82649040222168,-15.429508209228516 -55.826229095458984,-15.430330276489258 -55.826147079467773,-15.430545806884766 -55.826093673706055,-15.431325912475586 -55.826009750366211,-15.43280029296875 -55.825983047485352,-15.43425178527832 -55.825986862182617,-15.435758590698242 -55.825942993164062,-15.437093734741211 -55.825881958007812,-15.438005447387695 -55.825872421264648,-15.438434600830078 -55.825807571411133,-15.438846588134766 -55.825674057006836,-15.439262390136719 -55.825422286987305,-15.439968109130859 -55.825206756591797,-15.440547943115234 -55.825002670288086,-15.441370010375977 -55.824897766113281,-15.442270278930664 -55.824913024902344,-15.442819595336914 -55.825027465820312,-15.44334602355957 -55.82530403137207,-15.44415283203125 -55.825475692749023,-15.444849014282227 -55.825506210327148,-15.446002960205078 -55.825481414794922,-15.447114944458008 -55.825477600097656,-15.447671890258789 -55.825363159179688,-15.447992324829102 -55.825355529785156,-15.448451995849609 -55.825370788574219,-15.448923110961914 -55.825630187988281,-15.44951057434082 -55.825881958007812,-15.450038909912109 -55.826290130615234,-15.450675964355469 -55.827127456665039,-15.451513290405273 -55.82768440246582,-15.451957702636719 -55.828405380249023,-15.452373504638672 -55.829090118408203,-15.452625274658203 -55.82994270324707,-15.452871322631836 -55.830812454223633,-15.453329086303711 -55.831594467163086,-15.45393180847168 -55.832456588745117,-15.454740524291992 -55.833324432373047,-15.45557975769043 -55.833988189697266,-15.456327438354492 -55.834550857543945,-15.457170486450195 -55.835426330566406,-15.458765029907227 -55.835870742797852,-15.459589004516602 -55.83622932434082,-15.460287094116211 -55.836666107177734,-15.461250305175781 -55.837034225463867,-15.462165832519531 -55.837299346923828,-15.462789535522461 -55.837594985961914,-15.463418960571289 -55.837871551513672,-15.463994979858398 -55.838081359863281,-15.464529037475586 -55.83830451965332,-15.464941024780273 -55.839515686035156,-15.465229034423828 -55.850433349609375,-15.468311309814453 -55.854621887207031,-15.469097137451172 -55.872152328491211,-15.480684280395508 -55.872907638549805,-15.478977203369141 -55.904317855834961,-15.407960891723633 -55.896621704101562,-15.387535095214844 -55.894107818603516,-15.380859375 -55.885507583618164,-15.36274528503418 -55.884925842285156,-15.361516952514648 -55.884557723999023,-15.35212516784668 -55.884103775024414,-15.351972579956055 -55.88348388671875,-15.351667404174805 -55.882879257202148,-15.351320266723633 -55.882318496704102,-15.350986480712891 -55.881889343261719,-15.350753784179688 -55.881683349609375,-15.350681304931641 -55.881401062011719,-15.350780487060547 -55.880805969238281,-15.351051330566406 -55.879945755004883,-15.351535797119141 -55.879440307617188,-15.35181999206543 -55.878995895385742,-15.351903915405273 -55.878433227539062,-15.351886749267578 -55.877649307250977,-15.351680755615234 -55.876834869384766,-15.351547241210938 -55.876523971557617,-15.351547241210938 -55.876302719116211,-15.35148811340332 -55.8759765625,-15.351356506347656 -55.875755310058594,-15.351356506347656 -55.87542724609375,-15.351554870605469 -55.875116348266602,-15.351552963256836 -55.874763488769531,-15.35136604309082 -55.874362945556641,-15.351219177246094 -55.874038696289062,-15.351203918457031 -55.873607635498047,-15.351358413696289 -55.873132705688477,-15.351587295532227 -55.872716903686523,-15.351772308349609 -55.872257232666016,-15.351755142211914 -55.871932983398438,-15.351709365844727 -55.871768951416016,-15.351753234863281 -55.871589660644531,-15.351966857910156 -55.871500015258789,-15.352283477783203 -55.871320724487305,-15.352540969848633 -55.871084213256836,-15.3525390625 -55.870891571044922,-15.352466583251953 -55.870492935180664,-15.352277755737305 -55.869857788085938,-15.351943969726562 -55.869531631469727,-15.351856231689453 -55.86931037902832,-15.35185432434082 -55.869161605834961,-15.352012634277344 -55.869056701660156,-15.352184295654297 -55.868879318237305,-15.352083206176758 -55.868524551391602,-15.351951599121094 -55.868331909179688,-15.351980209350586 -55.868288040161133,-15.352079391479492 -55.868270874023438,-15.352209091186523 -55.868345260620117,-15.352411270141602 -55.86863899230957,-15.352685928344727 -55.869037628173828,-15.352787017822266 -55.86927604675293,-15.352846145629883 -55.869466781616211,-15.352975845336914 -55.86955451965332,-15.353120803833008 -55.869495391845703,-15.353321075439453 -55.869241714477539,-15.353448867797852 -55.868886947631836,-15.35356330871582 -55.868560791015625,-15.353633880615234 -55.867774963378906,-15.353715896606445 -55.867359161376953,-15.353755950927734 -55.866916656494141,-15.353652954101562 -55.86650276184082,-15.353549957275391 -55.866058349609375,-15.353303909301758 -55.865762710571289,-15.353158950805664 -55.865438461303711,-15.352998733520508 -55.865335464477539,-15.352767944335938 -55.865175247192383,-15.352365493774414 -55.864969253540039,-15.352062225341797 -55.864645004272461,-15.351860046386719 -55.864423751831055,-15.351699829101562 -55.864425659179688,-15.351442337036133 -55.864309310913086,-15.351110458374023 -55.864175796508789,-15.350967407226562 -55.863805770874023,-15.350950241088867 -55.86346435546875,-15.350948333740234 -55.863214492797852,-15.350933074951172 -55.862741470336914,-15.350728988647461 -55.862016677856445,-15.350351333618164 -55.861484527587891,-15.35020637512207 -55.861263275146484,-15.350061416625977 -55.861042022705078,-15.34990119934082 -55.860969543457031,-15.349685668945312 -55.860971450805664,-15.34942626953125 -55.860868453979492,-15.349124908447266 -55.860631942749023,-15.348979949951172 -55.860454559326172,-15.348978042602539 -55.860231399536133,-15.349092483520508 -55.860185623168945,-15.349336624145508 -55.86015510559082,-15.349624633789062 -55.859607696533203,-15.349664688110352 -55.859371185302734,-15.349576950073242 -55.859119415283203,-15.349431991577148 -55.858823776245117,-15.349201202392578 -55.858514785766602,-15.349098205566406 -55.858203887939453,-15.349054336547852 -55.857921600341797,-15.348979949951172 -55.857746124267578,-15.348892211914062 -55.857643127441406,-15.348676681518555 -55.857511520385742,-15.348445892333984 -55.857244491577148,-15.348300933837891 -55.856918334960938,-15.348270416259766 -55.856578826904297,-15.348268508911133 -55.856163024902344,-15.348352432250977 -55.85588264465332,-15.348381042480469 -55.855690002441406,-15.348379135131836 -55.855422973632812,-15.348335266113281 -55.855232238769531,-15.348104476928711 -55.855056762695312,-15.347728729248047 -55.854984283447266,-15.347471237182617 -55.854867935180664,-15.347124099731445 -55.854795455932617,-15.346809387207031 -55.854558944702148,-15.34669303894043 -55.854351043701172,-15.346763610839844 -55.854053497314453,-15.347034454345703 -55.854021072387695,-15.347322463989258 -55.853887557983398,-15.347465515136719 -55.853694915771484,-15.347492218017578 -55.853561401367188,-15.347391128540039 -55.853429794311523,-15.347261428833008 -55.853208541870117,-15.346929550170898 -55.853048324584961,-15.346685409545898 -55.85279655456543,-15.346569061279297 -55.852603912353516,-15.346538543701172 -55.852411270141602,-15.346551895141602 -55.85223388671875,-15.346708297729492 -55.851980209350586,-15.346807479858398 -55.85175895690918,-15.346820831298828 -55.851476669311523,-15.346834182739258 -55.851137161254883,-15.346832275390625 -55.850870132446289,-15.346845626831055 -55.850736618041992,-15.346944808959961 -55.850542068481445,-15.347204208374023 -55.850257873535156,-15.347589492797852 -55.850124359130859,-15.347761154174805 -55.84996223449707,-15.347761154174805 -55.849651336669922,-15.347743988037109 -55.849458694458008,-15.347671508789062 -55.849147796630859,-15.347513198852539 -55.848882675170898,-15.347396850585938 -55.848690032958984,-15.347394943237305 -55.848407745361328,-15.347509384155273 -55.848258972167969,-15.347780227661133 -55.848079681396484,-15.34800910949707 -55.847900390625,-15.348138809204102 -55.847635269165039,-15.348108291625977 -55.847354888916016,-15.347862243652344 -55.847223281860352,-15.347646713256836 -55.847015380859375,-15.347457885742188 -55.846706390380859,-15.347385406494141 -55.846408843994141,-15.347383499145508 -55.846157073974609,-15.347524642944336 -55.845561981201172,-15.348125457763672 -55.844741821289062,-15.348913192749023 -55.844131469726562,-15.349441528320312 -55.843746185302734,-15.349639892578125 -55.843107223510742,-15.349981307983398 -55.842453002929688,-15.350408554077148 -55.841754913330078,-15.351037979125977 -55.841157913208008,-15.351652145385742 -55.840860366821289,-15.35188102722168 -55.840518951416016,-15.352081298828125 -55.840267181396484,-15.352094650268555 -55.839956283569336,-15.352035522460938 -55.839557647705078,-15.351831436157227 -55.839174270629883,-15.351657867431641 -55.838773727416992,-15.351583480834961 -55.838344573974609,-15.351581573486328 -55.837900161743164,-15.351564407348633 -55.837591171264648,-15.351419448852539 -55.837116241455078,-15.351329803466797 -55.836509704589844,-15.351268768310547 -55.836198806762695,-15.351266860961914 -55.83568000793457,-15.351264953613281 -55.835355758666992,-15.351291656494141 -55.834850311279297,-15.3515625 -55.833749771118164,-15.352304458618164 -55.832857131958008,-15.352945327758789 -55.832187652587891,-15.35359001159668 -55.831710815429688,-15.354118347167969 -55.831457138061523,-15.354562759399414 -55.831306457519531,-15.355093002319336 -55.831302642822266,-15.355524063110352 -55.831108093261719,-15.355926513671875 -55.831003189086914,-15.356199264526367 -55.83104133605957,-15.356380462646484 -55.83140754699707,-15.357524871826172 -55.830875396728516,-15.35923957824707 -55.82374382019043,-15.359046936035156 -55.826759338378906,-15.353889465332031 -55.828897476196289,-15.355093002319336 -55.829172134399414,-15.35283088684082 -55.829551696777344,-15.352165222167969 -55.830337524414062,-15.351499557495117 -55.831527709960938,-15.351142883300781 -55.83747673034668,-15.349166870117188 -55.838689804077148,-15.348644256591797 -55.839260101318359,-15.348167419433594 -55.840045928955078,-15.34712028503418 -55.840385437011719,-15.34663200378418 -55.841096878051758,-15.345602035522461 -55.841741561889648,-15.345119476318359 -55.842403411865234,-15.345014572143555 -55.842979431152344,-15.345016479492188 -55.845855712890625,-15.34503173828125 -55.847267150878906,-15.344890594482422 -55.851202011108398,-15.344501495361328 -55.851526260375977,-15.344394683837891 -55.854084014892578,-15.343559265136719 -55.856639862060547,-15.342216491699219 -55.859539031982422,-15.342479705810547 -55.860336303710938,-15.342554092407227 -55.862396240234375,-15.341766357421875 -55.864612579345703,-15.339635848999023 -55.866838455200195,-15.338809967041016 -55.868249893188477,-15.338287353515625 -55.87244987487793,-15.33711051940918 -55.87504768371582,-15.336675643920898 -55.876152038574219,-15.336492538452148 -55.879783630371094,-15.337051391601562 -55.881492614746094,-15.337089538574219 -55.885091781616211,-15.337285995483398 -55.886404037475586,-15.337291717529297 -55.888141632080078,-15.337419509887695 -55.889636993408203,-15.337560653686523 -55.890979766845703,-15.33746337890625 -55.893999099731445,-15.337730407714844 -55.894912719726562,-15.337734222412109 -55.89556884765625,-15.337738037109375 -55.897266387939453,-15.337154388427734 -55.898611068725586,-15.336643218994141 -55.899757385253906,-15.33635139465332 -55.901237487792969,-15.336122512817383 -55.902854919433594,-15.336027145385742 -55.903877258300781,-15.336091995239258 -55.905050277709961,-15.336393356323242 -55.906208038330078,-15.336679458618164 -55.907852172851562,-15.337339401245117 -55.909374237060547,-15.337894439697266 -55.911718368530273,-15.338869094848633 -55.913772583007812,-15.339752197265625 -55.914976119995117,-15.340187072753906 -55.916042327880859,-15.340473175048828 -55.916772842407227,-15.34075927734375 -55.917518615722656,-15.341043472290039 -55.918933868408203,-15.341760635375977 -55.92047119140625,-15.34283447265625 -55.922296524047852,-15.343833923339844 -55.923284530639648,-15.344505310058594 -55.924440383911133,-15.345415115356445 -55.925458908081055,-15.34620475769043 -55.926778793334961,-15.347469329833984 -55.928024291992188,-15.348628997802734 -55.929389953613281,-15.350116729736328 -55.930511474609375,-15.351291656494141 -55.931665420532227,-15.352422714233398 -55.932319641113281,-15.352884292602539 -55.933750152587891,-15.353734970092773 -55.935178756713867,-15.354496002197266 -55.936838150024414,-15.355274200439453 -55.937994003295898,-15.355916976928711 -55.939258575439453,-15.356544494628906 -55.940567016601562,-15.357156753540039 -55.942226409912109,-15.357757568359375 -55.943338394165039,-15.358310699462891 -55.943962097167969,-15.358610153198242 -55.944736480712891,-15.359189987182617 -55.94561767578125,-15.359846115112305 -55.946575164794922,-15.360576629638672 -55.947624206542969,-15.361410140991211 -55.948596954345703,-15.36224365234375 -55.949888229370117,-15.363271713256836 -55.951103210449219,-15.364372253417969 -55.95112419128418,-15.364389419555664 -55.95142936706543,-15.364475250244141 -55.952114105224609,-15.364667892456055 -55.953151702880859,-15.364803314208984 -55.954578399658203,-15.364891052246094 -55.959136962890625,-15.365251541137695 -55.963563919067383,-15.365585327148438 -55.965124130249023,-15.365720748901367 -55.965164184570312,-15.365707397460938 -55.96533203125,-15.364957809448242 -55.96583366394043,-15.363540649414062 -55.966495513916016,-15.361904144287109 -55.967061996459961,-15.361055374145508 -55.967901229858398,-15.359987258911133 -55.968357086181641,-15.358942031860352 -55.968902587890625,-15.357786178588867 -55.969064712524414,-15.356912612915039 -55.969070434570312,-15.355579376220703 -55.969104766845703,-15.353460311889648 -55.968887329101562,-15.351644515991211 -55.968311309814453,-15.349720001220703 -55.968048095703125,-15.34834098815918 -55.96803092956543,-15.347314834594727 -55.967832565307617,-15.346614837646484 -55.967586517333984,-15.345979690551758 -55.96729850769043,-15.345125198364258 -55.966699600219727,-15.343374252319336 -55.966320037841797,-15.342586517333984 -55.96623420715332,-15.341646194458008 -55.966241836547852,-15.340204238891602 -55.966451644897461,-15.338720321655273 -55.966682434082031,-15.337583541870117 -55.966686248779297,-15.336818695068359 -55.966510772705078,-15.335988998413086 -55.96624755859375,-15.334609985351562 -55.965715408325195,-15.332969665527344 -55.965654373168945,-15.331657409667969 -55.965724945068359,-15.330959320068359 -55.965930938720703,-15.330282211303711 -55.966386795043945,-15.329214096069336 -55.967182159423828,-15.327732086181641 -55.967729568481445,-15.326248168945312 -55.968231201171875,-15.324764251708984 -55.96961784362793,-15.32227897644043 -55.970869064331055,-15.319576263427734 -55.971166610717773,-15.318527221679688 -55.971218109130859,-15.317043304443359 -55.971181869506836,-15.315315246582031 -55.971319198608398,-15.31488037109375 -55.971343994140625,-15.314464569091797 -55.971347808837891,-15.313852310180664 -55.97123908996582,-15.313087463378906 -55.970951080322266,-15.31214714050293 -55.97059440612793,-15.311073303222656 -55.970508575439453,-15.310417175292969 -55.970489501953125,-15.30963134765625 -55.970630645751953,-15.308626174926758 -55.970613479614258,-15.307315826416016 -55.970647811889648,-15.304956436157227 -55.970863342285156,-15.302160263061523 -55.970876693725586,-15.299406051635742 -55.971080780029297,-15.294731140136719 -55.971298217773438,-15.291738510131836 -55.971120834350586,-15.286602020263672 -55.971292495727539,-15.283697128295898 -55.971302032470703,-15.281730651855469 -55.971462249755859,-15.280878067016602 -55.971649169921875,-15.279743194580078 -55.971506118774414,-15.276880264282227 -55.971223831176758,-15.274387359619141 -55.970914840698242,-15.273250579833984 -55.970806121826172,-15.272439956665039 -55.97081184387207,-15.271478652954102 -55.970575332641602,-15.269052505493164 -55.970432281494141,-15.265993118286133 -55.970333099365234,-15.263523101806641 -55.97056770324707,-15.261468887329102 -55.97059440612793,-15.260507583618164 -55.9705810546875,-15.258651733398438 -55.970586776733398,-15.257558822631836 -55.970363616943359,-15.256967544555664 -55.969448089599609,-15.255674362182617 -55.969045639038086,-15.254884719848633 -55.969003677368164,-15.254383087158203 -55.969276428222656,-15.253902435302734 -55.970157623291016,-15.253120422363281 -55.970949172973633,-15.252336502075195 -55.97325325012207,-15.250797271728516 -55.975105285644531,-15.249427795410156 -55.977073669433594,-15.247447967529297 -55.977935791015625,-15.245681762695312 -55.978574752807617,-15.243936538696289 -55.979167938232422,-15.242498397827148 -55.979238510131836,-15.2418212890625 -55.978994369506836,-15.24085807800293 -55.978864669799805,-15.239873886108398 -55.979030609130859,-15.238367080688477 -55.979286193847656,-15.236358642578125 -55.979480743408203,-15.235069274902344 -55.979555130004883,-15.233800888061523 -55.979497909545898,-15.233066558837891 -55.979248046875,-15.232345581054688 -55.97845458984375,-15.230901718139648 -55.977506637573242,-15.229230880737305 -55.976772308349609,-15.227748870849609 -55.975788116455078,-15.225681304931641 -55.975170135498047,-15.224124908447266 -55.974981307983398,-15.223062515258789 -55.974752426147461,-15.221773147583008 -55.97456169128418,-15.2208251953125 -55.974155426025391,-15.220161437988281 -55.973421096801758,-15.218944549560547 -55.972665786743164,-15.217615127563477 -55.972221374511719,-15.216705322265625 -55.971738815307617,-15.215566635131836 -55.97117805480957,-15.214786529541016 -55.970010757446289,-15.214118957519531 -55.969095230102539,-15.213830947875977 -55.968452453613281,-15.213619232177734 -55.967247009277344,-15.213211059570312 -55.952924728393555,-15.215642929077148 -55.930667877197266,-15.209526062011719 -55.927885055541992,-15.208761215209961 -55.927558898925781,-15.208982467651367 -55.927309036254883,-15.209415435791016 -55.92694091796875,-15.210041046142578 -55.926488876342773,-15.210796356201172 -55.92608642578125,-15.211696624755859 -55.925498962402344,-15.213207244873047 -55.925130844116211,-15.213897705078125 -55.92437744140625,-15.215021133422852 -55.924026489257812,-15.215599060058594</coordinates></LinearRing></outerBoundaryIs></Polygon></MultiGeometry>
  </Placemark>
</Folder></Document></kml>
